NORAD_CAT_ID,OBJECT_NAME,OBJECT_TYPE,EPOCH,MEAN_MOTION,ECCENTRICITY,INCLINATION,RA_OF_ASC_NODE,ARG_OF_PERICENTER,MEAN_ANOMALY,BSTAR,MEAN_MOTION_DOT,MEAN_MOTION_DDOT,TLE_LINE0,TLE_LINE1,TLE_LINE2,SEMIMAJOR_AXIS,PERIOD,APOGEE,PERIGEE,DECAYED
54160.0,STARLINK-5233,PAYLOAD,2023-11-22 18:49:17,15.08845939,0.0001356,53.216,130.5914,103.7706,256.3437,0.00052108,8.016e-05,0.0,0 STARLINK-5233,1 54160U 22141D   23326.78422696  .00008016  00000-0  52108-3 0  9990,2 54160  53.2160 130.5914 0001356 103.7706 256.3437 15.08845939 59856,6917.862,95.437,540.665,538.789,0.0
54160.0,STARLINK-5233,PAYLOAD,2023-11-23 10:43:09,15.08840002,0.0001282,53.2157,127.6181,104.3486,255.7649,0.00058881,9.095e-05,0.0,0 STARLINK-5233,1 54160U 22141D   23327.44663300  .00009095  00000-0  58881-3 0  9995,2 54160  53.2157 127.6181 0001282 104.3486 255.7649 15.08840002 59950,6917.88,95.438,540.632,538.859,0.0
54160.0,STARLINK-5233,PAYLOAD,2023-11-23 17:04:41,15.08844718,0.0001369,53.2162,126.4296,93.3088,266.8061,0.00044606,6.819e-05,0.0,0 STARLINK-5233,1 54160U 22141D   23327.71159067  .00006819  00000-0  44606-3 0  9996,2 54160  53.2162 126.4296 0001369  93.3088 266.8061 15.08844718 59994,6917.866,95.437,540.678,538.784,0.0
54160.0,STARLINK-5233,PAYLOAD,2023-11-24 13:44:41,15.08853961,0.0001456,53.2163,122.5638,85.7192,274.3967,2.2945e-05,7.7e-07,0.0,0 STARLINK-5233,1 54160U 22141D   23328.57269891  .00000077  00000-0  22945-4 0  9991,2 54160  53.2163 122.5638 0001456  85.7192 274.3967 15.08853961 60126,6917.838,95.437,540.71,538.695,0.0
54160.0,STARLINK-5233,PAYLOAD,2023-11-24 16:55:27,15.0885548,0.0001395,53.2173,121.9691,88.6348,271.4804,9.6141e-06,-1.35e-06,0.0,0 STARLINK-5233,1 54160U 22141D   23328.70517757 -.00000135  00000-0  96141-5 0  9999,2 54160  53.2173 121.9691 0001395  88.6348 271.4804 15.08855480 60144,6917.833,95.437,540.663,538.733,0.0
54160.0,STARLINK-5233,PAYLOAD,2023-11-25 13:35:28,15.08847546,0.0001419,53.2173,118.1038,85.1399,274.9755,2.8065e-05,1.59e-06,0.0,0 STARLINK-5233,1 54160U 22141D   23329.56629694  .00000159  00000-0  28065-4 0  9992,2 54160  53.2173 118.1038 0001419  85.1399 274.9755 15.08847546 60273,6917.857,95.437,540.704,538.741,0.0
54160.0,STARLINK-5233,PAYLOAD,2023-11-25 19:56:59,15.08854307,0.0001444,53.2169,116.913,84.6778,275.4379,6.9965e-05,8.26e-06,0.0,0 STARLINK-5233,1 54160U 22141D   23329.83124936  .00000826  00000-0  69965-4 0  9996,2 54160  53.2169 116.9130 0001444  84.6778 275.4379 15.08854307 60316,6917.837,95.437,540.701,538.703,0.0
54160.0,STARLINK-5233,PAYLOAD,2023-11-26 10:15:28,15.08847736,0.0001602,53.2165,114.2336,109.237,250.8796,2.8471e-05,1.65e-06,0.0,0 STARLINK-5233,1 54160U 22141D   23330.42741031  .00000165  00000-0  28471-4 0  9997,2 54160  53.2165 114.2336 0001602 109.2370 250.8796 15.08847736 60407,6917.857,95.437,540.83,538.614,0.0
54160.0,STARLINK-5233,PAYLOAD,2023-11-26 13:26:14,15.08852241,0.0001713,53.2171,113.6385,117.214,242.9027,5.7933e-05,6.34e-06,0.0,0 STARLINK-5233,1 54160U 22141D   23330.55988539  .00000634  00000-0  57933-4 0  9993,2 54160  53.2171 113.6385 0001713 117.2140 242.9027 15.08852241 60426,6917.843,95.437,540.893,538.523,0.0
54160.0,STARLINK-5233,PAYLOAD,2023-11-26 16:37:00,15.08854004,0.0001562,53.2174,113.0443,110.5583,249.5577,6.8551e-05,8.04e-06,0.0,0 STARLINK-5233,1 54160U 22141D   23330.69236352  .00000804  00000-0  68551-4 0  9994,2 54160  53.2174 113.0443 0001562 110.5583 249.5577 15.08854004 60441,6917.838,95.437,540.783,538.622,0.0
54160.0,STARLINK-5233,PAYLOAD,2023-11-27 10:06:16,15.0883412,0.0001616,53.2175,109.7727,104.3257,255.7915,-2.5915e-05,-7e-06,0.0,0 STARLINK-5233,1 54160U 22141D   23331.42101952 -.00000700  00000-0 -25915-4 0  9997,2 54160  53.2175 109.7727 0001616 104.3257 255.7915 15.08834120 60552,6917.898,95.438,540.881,538.645,0.0
54160.0,STARLINK-5233,PAYLOAD,2023-11-27 14:52:25,15.08830857,0.0001671,53.2179,108.8807,109.9724,250.1448,-4.9952e-05,-1.083e-05,0.0,0 STARLINK-5233,1 54160U 22141D   23331.61974283 -.00001083  00000-0 -49952-4 0  9995,2 54160  53.2179 108.8807 0001671 109.9724 250.1448 15.08830857 60582,6917.908,95.438,540.929,538.617,0.0
54160.0,STARLINK-5233,PAYLOAD,2023-11-27 16:27:49,15.08829816,0.0001496,53.2176,108.5835,100.6888,259.4273,-6.1648e-05,-1.269e-05,0.0,0 STARLINK-5233,1 54160U 22141D   23331.68598448 -.00001269  00000-0 -61648-4 0  9999,2 54160  53.2176 108.5835 0001496 100.6888 259.4273 15.08829816 60593,6917.912,95.438,540.811,538.742,0.0
54160.0,STARLINK-5233,PAYLOAD,2023-11-28 14:43:12,15.08842734,0.0001413,53.2177,104.4234,89.2022,270.9132,1.862e-05,8e-08,0.0,0 STARLINK-5233,1 54160U 22141D   23332.61333843  .00000008  00000-0  18620-4 0  9999,2 54160  53.2177 104.4234 0001413  89.2022 270.9132 15.08842734 60735,6917.872,95.437,540.715,538.76,0.0
54160.0,STARLINK-5233,PAYLOAD,2023-11-28 19:29:21,15.08852013,0.0001427,53.2181,103.5299,95.5118,264.6037,9.9661e-05,1.299e-05,0.0,0 STARLINK-5233,1 54160U 22141D   23332.81204994  .00001299  00000-0  99661-4 0  9992,2 54160  53.2181 103.5299 0001427  95.5118 264.6037 15.08852013 60760,6917.844,95.437,540.696,538.721,0.0
54160.0,STARLINK-5233,PAYLOAD,2023-11-29 14:33:59,15.08838741,0.000161,53.2174,99.959,82.8498,277.2677,0.00021582,3.148e-05,0.0,0 STARLINK-5233,1 54160U 22141D   23333.60694217  .00003148  00000-0  21582-3 0  9992,2 54160  53.2174  99.9590 0001610  82.8498 277.2677 15.08838741 60883,6917.884,95.438,540.863,538.635,0.0
54160.0,STARLINK-5233,PAYLOAD,2023-11-29 16:09:22,15.08847482,0.0001441,53.217,99.668,71.6381,288.4768,0.00034983,5.285e-05,0.0,0 STARLINK-5233,1 54160U 22141D   23333.67317902  .00005285  00000-0  34983-3 0  9995,2 54160  53.2170  99.6680 0001441  71.6381 288.4768 15.08847482 60893,6917.858,95.437,540.719,538.726,0.0
54160.0,STARLINK-5233,PAYLOAD,2023-11-30 16:00:09,15.08849415,0.0001559,53.2177,95.2077,69.7577,290.3583,0.00016174,2.288e-05,0.0,0 STARLINK-5233,1 54160U 22141D   23334.66677981  .00002288  00000-0  16174-3 0  9993,2 54160  53.2177  95.2077 0001559  69.7577 290.3583 15.08849415 61040,6917.852,95.437,540.795,538.638,0.0
54160.0,STARLINK-5233,PAYLOAD,2023-12-01 14:15:33,15.08858094,0.0001632,53.2174,91.0489,117.8199,242.2959,0.00022803,3.345e-05,0.0,0 STARLINK-5233,1 54160U 22141D   23335.59413408  .00003345  00000-0  22803-3 0  9999,2 54160  53.2174  91.0489 0001632 117.8199 242.2959 15.08858094 61186,6917.825,95.436,540.819,538.561,0.0
54160.0,STARLINK-5233,PAYLOAD,2023-12-02 12:30:57,15.0882673,0.0001153,53.2177,86.8824,68.4999,291.6116,-0.00033247,-5.573e-05,0.0,0 STARLINK-5233,1 54160U 22141D   23336.52150163 -.00005573  00000-0 -33247-3 0  9990,2 54160  53.2177  86.8824 0001153  68.4999 291.6116 15.08826730 61322,6917.921,95.438,540.584,538.988,0.0
54160.0,STARLINK-5233,PAYLOAD,2023-12-02 14:06:21,15.08819424,0.0001138,53.2176,86.5861,81.4463,278.6658,-0.00046683,-7.705e-05,0.0,0 STARLINK-5233,1 54160U 22141D   23336.58774427 -.00007705  00000-0 -46683-3 0  9998,2 54160  53.2176  86.5861 0001138  81.4463 278.6658 15.08819424 61332,6917.943,95.439,540.596,539.021,0.0
54160.0,STARLINK-5233,PAYLOAD,2023-12-03 13:57:09,15.08823863,0.0001401,53.2181,82.1266,104.1455,255.9693,-0.00019444,-3.38e-05,0.0,0 STARLINK-5233,1 54160U 22141D   23337.58136226 -.00003380  00000-0 -19444-3 0  9998,2 54160  53.2181  82.1266 0001401 104.1455 255.9693 15.08823863 61481,6917.93,95.439,540.764,538.826,0.0
54160.0,STARLINK-5233,PAYLOAD,2023-12-03 17:07:56,15.08822609,0.0001346,53.2175,81.5245,94.6276,265.487,-0.00011515,-2.119e-05,0.0,0 STARLINK-5233,1 54160U 22141D   23337.71384485 -.00002119  00000-0 -11515-3 0  9995,2 54160  53.2175  81.5245 0001346  94.6276 265.4870 15.08822609 61509,6917.934,95.439,540.73,538.867,0.0
54160.0,STARLINK-5233,PAYLOAD,2023-12-04 12:12:32,15.08851792,0.0001293,53.2185,77.9621,91.7974,268.3166,5.7019e-05,6.2e-06,0.0,0 STARLINK-5233,1 54160U 22141D   23338.50871391  .00000620  00000-0  57019-4 0  9993,2 54160  53.2185  77.9621 0001293  91.7974 268.3166 15.08851792 61629,6917.844,95.437,540.604,538.815,0.0
54160.0,STARLINK-5233,PAYLOAD,2023-12-05 12:03:19,15.08852659,0.0001278,53.2184,73.4993,101.5444,258.5692,0.00034334,5.182e-05,0.0,0 STARLINK-5233,1 54160U 22141D   23339.50231382  .00005182  00000-0  34334-3 0  9996,2 54160  53.2184  73.4993 0001278 101.5444 258.5692 15.08852659 61770,6917.842,95.437,540.591,538.823,0.0
54160.0,STARLINK-5233,PAYLOAD,2023-12-06 11:54:07,15.08848207,0.0001349,53.2194,69.0365,108.7484,251.3655,7.908e-06,-1.62e-06,0.0,0 STARLINK-5233,1 54160U 22141D   23340.49591447 -.00000162  00000-0  79080-5 0  9990,2 54160  53.2194  69.0365 0001349 108.7484 251.3655 15.08848207 61928,6917.855,95.437,540.654,538.787,0.0
54160.0,STARLINK-5233,PAYLOAD,2023-12-06 13:29:30,15.08846798,0.0001153,53.219,68.7398,88.2889,271.8235,-8.7333e-06,-4.27e-06,0.0,0 STARLINK-5233,1 54160U 22141D   23340.56215558 -.00000427  00000-0 -87333-5 0  9999,2 54160  53.2190  68.7398 0001153  88.2889 271.8235 15.08846798 61935,6917.86,95.437,540.522,538.927,0.0
54160.0,STARLINK-5233,PAYLOAD,2023-12-07 11:44:54,15.08846317,0.0001188,53.2183,64.5783,75.1167,284.9957,-7.1828e-05,-1.431e-05,0.0,0 STARLINK-5233,1 54160U 22141D   23341.48951535 -.00001431  00000-0 -71828-4 0  9990,2 54160  53.2183  64.5783 0001188  75.1167 284.9957 15.08846317 62070,6917.861,95.437,540.548,538.904,0.0
54160.0,STARLINK-5233,PAYLOAD,2023-12-07 13:20:18,15.08807735,0.0001543,53.2191,64.2818,69.7581,290.3577,0.00048624,7.452e-05,0.0,0 STARLINK-5233,1 54160U 22141D   23341.55576391  .00007452  00000-0  48624-3 0  9995,2 54160  53.2191  64.2818 0001543  69.7581 290.3577 15.08807735 62080,6917.979,95.44,540.911,538.777,0.0
54160.0,STARLINK-5233,PAYLOAD,2023-12-08 11:35:41,15.08839351,0.0001726,53.2192,60.1199,55.6179,304.4977,0.00010586,1.397e-05,0.0,0 STARLINK-5233,1 54160U 22141D   23342.48311551  .00001397  00000-0  10586-3 0  9991,2 54160  53.2192  60.1199 0001726  55.6179 304.4977 15.08839351 62224,6917.882,95.438,540.941,538.553,0.0
